SKYSAT-C13              
1 43802U 18099AW  23036.90325906  .00015730  00000+0  38662-3 0  9995
2 43802  97.1246 101.1930 0002232  85.7671 274.3831 15.40723737232875
JY1SAT (JO-97)          
1 43803U 18099AX  23036.16017709  .00004276  00000+0  35897-3 0  9993
2 43803  97.5909 102.1819 0013671 204.4944 155.5631 14.98787241227903
SUOMI-100               
1 43804U 18099AY  23036.73344431  .00005568  00000+0  46815-3 0  9999
2 43804  97.5924 102.5985 0013549 195.8512 164.2288 14.98602563227994
AL-FARABI 2             
1 43805U 18099AZ  23036.73473357  .00006768  00000+0  55211-3 0  9993
2 43805  97.5935 103.4191 0012929 191.9917 168.1001 14.99698112228031
2018-099BA              
1 43806U 18099BA  23036.91447341  .00003351  00000+0  28968-3 0  9992
2 43806  97.5874 102.1493 0014178 199.1808 160.8946 14.97785899227686
EUCROPIS                
1 43807U 18099BB  23036.93721800  .00004519  00000+0  38306-3 0  9994
2 43807  97.5990 103.6645 0011726 189.9952 170.1039 14.98396669227438
POLAR SCOUT YUKON       
1 43808U 18099BC  23036.93067842  .00005862  00000+0  48803-3 0  9999
2 43808  97.5985 104.0714 0010863 196.7106 163.3761 14.98986036227746
CENTAURI-1              
1 43809U 18099BD  23036.69784928  .00003264  00000+0  28121-3 0  9999
2 43809  97.5914 102.7700 0014090 203.3519 156.7065 14.97938762227675
2018-099BE              
1 43810U 18099BE  23036.73927080  .00003194  00000+0  27863-3 0  9998
2 43810  97.5794 100.4841 0013441 193.5288 166.5570 14.97473127227529
NEXTSAT-1               
1 43811U 18099BF  23036.89673323  .00002249  00000+0  19893-3 0  9998
2 43811  97.5918 102.6477 0012188 198.6127 161.4651 14.97228130227540
GLOBAL-2                
1 43812U 18099BG  23036.89296555  .00002229  00000+0  19642-3 0  9997
2 43812  97.5886 102.2617 0012631 202.1114 157.9565 14.97393944227570
BRIO                    
1 43813U 18099BH  23036.74486186  .00008163  00000+0  65371-3 0  9996
2 43813  97.6172 106.6095 0009850 177.6413 182.4859 15.00372506227772
FALCONSAT-6             
1 43815U 18099BK  23036.60943666  .00006232  00000+0  44323-3 0  9993
2 43815  97.6323 106.0330 0028572 204.2793 155.7089 15.04688211227739
SPACEBEE-7              
1 43816U 18099BL  23036.91747725  .00006549  00000+0  53317-3 0  9990
2 43816  97.5964 104.5610 0013673 182.3388 177.7774 14.99782322227619
SPACEBEE-5              
1 43817U 18099BM  23036.92436956  .00021390  00000+0  14093-2 0  9991
2 43817  97.6101 109.5217 0004905 175.9736 184.1532 15.07516259227859
SPACEBEE-6              
1 43818U 18099BN  23036.91943495  .00009975  00000+0  76563-3 0  9998
2 43818  97.6103 106.0787 0013522 195.7463 164.3343 15.01901559227831
EXCITE                  
1 43819U 18099BP  23036.74781223  .00001616  00000+0  14532-3 0  9991
2 43819  97.5890 101.8785 0012250 201.9880 158.0818 14.96962280227530
SEAHAWK-1               
1 43820U 18099BQ  23036.68436663  .00003186  00000+0  27232-3 0  9996
2 43820  97.5881 102.0903 0011300 189.8105 170.2899 14.98290081227389
GEO-KOMPSAT-2A          
1 43823U 18100A   23036.89751253 -.00000341  00000+0  00000+0 0  9991
2 43823   0.0132 109.1959 0000975 279.3232 198.5955  1.00270947 15313
GSAT-11                 
1 43824U 18100B   23036.88670407 -.00000073  00000+0  00000+0 0  9994
2 43824   0.0573 270.7502 0002653 151.6283 106.5455  1.00272074 15176
SAUDISAT 5A             
1 43831U 18102A   23036.87000745  .00003578  00000+0  22094-3 0  9998
2 43831  97.4722 109.5893 0015267  96.6465  38.5531 15.10426742229396
SAUDISAT 5B             
1 43833U 18102C   23036.88704311  .00004325  00000+0  26276-3 0  9998
2 43833  97.4754 110.7721 0016006 102.2682  17.7992 15.10900303229451
TOMSAT R3 (AEROCUBE 11B)
1 43849U 18104A   23036.63517526  .00020488  00000+0  58836-3 0  9995
2 43849  85.0258 254.9330 0014985 102.9093 257.3832 15.35599362230389
SHIELDS 1               
1 43850U 18104B   23036.85255988  .00005798  00000+0  22423-3 0  9992
2 43850  85.0244 257.1128 0015415 118.6240 241.6557 15.25869497230066
ELECTRON KICK STAGE R/B 
1 43851U 18104C   23036.64262645  .00027914  00000+0  71345-3 0  9999
2 43851  85.0264 253.7776 0012269  88.6098 271.6559 15.39235656230492
STF-1                   
1 43852U 18104D   23036.87623122  .00019830  00000+0  61480-3 0  9993
2 43852  85.0253 256.3478 0012882 122.3491 237.9006 15.33211926230213
2018-104F               
1 43854U 18104F   23036.68785057  .00030865  00000+0  75557-3 0  9991
2 43854  85.0183 251.5144 0014027  83.2709 277.0138 15.40519435230556
CHOMPTT                 
1 43855U 18104G   23036.84504730  .00014647  00000+0  45659-3 0  9997
2 43855  85.0297 255.0061 0015992  88.7138 271.5941 15.32987017230409
CP11 (ISX)              
1 43856U 18104H   23036.87816223  .00016216  00000+0  54112-3 0  9992
2 43856  85.0259 257.4357 0013165 131.0349 229.2038 15.30850187230118
DAVINCI                 
1 43857U 18104J   23036.87019355  .01228605  79839-3  23785-2 0  9993
2 43857  84.9952 247.2980 0004314  62.2305 297.9416 16.00559637231059
2018-104K               
1 43858U 18104K   23036.90943965  .00013047  00000+0  43818-3 0  9992
2 43858  85.0250 256.4123 0014925 118.9193 241.3553 15.30608418230190
2018-104L               
1 43859U 18104L   23036.88256067  .00013852  00000+0  46712-3 0  9990
2 43859  85.0236 255.9095 0012890 113.1949 247.0657 15.30507362230196
TOMSAT EAGLESCOUT       
1 43861U 18104N   23036.91916055  .00019173  00000+0  57409-3 0  9994
2 43861  85.0348 256.9257 0014609 103.4695 256.8183 15.34291974230357
GSAT-7A                 
1 43864U 18105A   23036.88452495  .00000030  00000+0  00000+0 0  9990
2 43864   0.0679 269.3702 0002093  21.1478 226.4181  1.00271280 15152
COSMOS 2533             
1 43867U 18107A   23034.77186330 -.00000036  00000+0  00000+0 0  9990
2 43867   0.0224 120.0498 0000721 165.0892 196.3668  1.00274263 15092
HONGYUN 1               
1 43871U 18108A   23036.78168598  .00000019  00000+0  10000-3 0  9990
2 43871  99.8664  59.3479 0012576 171.4766 188.6585 13.50522799203398
NAVSTAR 77 (USA 289)    
1 43873U 18109A   23036.73329465 -.00000010  00000+0  00000+0 0  9997
2 43873  55.1379 140.6846 0023257 190.7156 328.8967  2.00558898 30454
TJS-3                   
1 43874U 18110A   23036.89916867 -.00000275  00000+0  00000+0 0  9998
2 43874   0.1075 271.8187 0000810 154.5566 169.6139  1.00431605 15119
KANOPUS-V 5             
1 43876U 18111A   23036.73660188  .00008392  00000+0  38457-3 0  9994
2 43876  97.4226 306.9337 0001948  83.4882 354.5139 15.20714396226004
KANOPUS-V 6             
1 43877U 18111B   23036.77554950  .00011470  00000+0  52423-3 0  9998
2 43877  97.4241 306.9802 0001893  90.3335 344.9874 15.20718368226000
ISAT                    
1 43879U 18111D   23036.73197820  .00005838  00000+0  47354-3 0  9993
2 43879  97.6505 303.1645 0011273 243.2742 116.7328 14.99994251224611
UWE-4                   
1 43880U 18111E   23036.71757331  .00004984  00000+0  40445-3 0  9997
2 43880  97.6554 304.0036 0012272 258.2305 101.7542 15.00039393224647
D-STAR ONE (SPARROW)    
1 43881U 18111F   23036.70289067  .00005965  00000+0  47912-3 0  9999
2 43881  97.6650 304.3355 0010368 269.6144  90.3891 15.00376237224655
LEMUR-2-CHRISTINAHOLT   
1 43882U 18111G   23036.72295316  .00006968  00000+0  53325-3 0  9995
2 43882  97.6643 306.0328 0008590 211.8738 148.1967 15.02173419224744
LEMUR-2-TINYKEV         
1 43883U 18111H   23036.73564324  .00009612  00000+0  72062-3 0  9993
2 43883  97.6458 306.1041 0008837 207.2626 152.8136 15.02852490224766
LEMUR-2-REMY-COLTON     
1 43884U 18111J   23036.69346472  .00009285  00000+0  70207-3 0  9996
2 43884  97.6546 306.7369 0001153 169.0391 191.0859 15.02566641222789
LEMUR-2-GUSTAVO         
1 43885U 18111K   23036.71523543  .00007526  00000+0  57495-3 0  9996
2 43885  97.6526 306.3172 0015211 221.7830 138.2234 15.02151829224757
LEMUR-2-ZO              
1 43886U 18111L   23036.69922501  .00008884  00000+0  67842-3 0  9996
2 43886  97.6416 306.5081 0014064 246.3846 113.5902 15.02129198224765
LEMUR-2-NATALIEMURRAY   
1 43887U 18111M   23036.70353102  .00008856  00000+0  67269-3 0  9996
2 43887  97.6525 306.9697 0011423 188.3655 171.7381 15.02358273224780
LEMUR-2-SARAHBETTYBOO   
1 43888U 18111N   23036.71302161  .00008549  00000+0  64488-3 0  9996
2 43888  97.6848 307.6497 0012283 280.0506  79.9333 15.02626922224791
LEMUR-2-DAISY-HARPER    
1 43889U 18111P   23036.70860477  .00009151  00000+0  69026-3 0  9998
2 43889  97.6763 307.7518 0010671 277.6347  82.3666 15.02622514224797
GRUS-1A                 
1 43890U 18111Q   23036.90684953  .00001039  00000+0  10265-3 0  9993
2 43890  97.6165 292.4123 0003969 338.2277  21.8780 14.93981114224119
2018-111R               
1 43891U 18111R   23036.85726943  .00002788  00000+0  11322-3 0  9991
2 43891  97.1505 274.1977 0025229 352.5563  69.5446 15.25095566228639
ZACUBE-2                
1 43907U 18111AH  23036.82754024  .00017317  00000+0  54356-3 0  9995
2 43907  97.1606 280.0504 0016925 334.6833  89.2560 15.32944581228976
LUME 1                  
1 43908U 18111AJ  23036.92998577  .00020976  00000+0  57713-3 0  9995
2 43908  97.1618 282.8018 0014265 324.6632  35.3667 15.37097109229163
YUNHAI 2-01             
1 43909U 18112A   23036.77603952  .00000126  00000+0  11516-3 0  9996
2 43909  50.0107 209.7677 0000315 135.9133 224.1836 14.27887765215674
YUNHAI 2-02             
1 43910U 18112B   23036.73395551  .00000161  00000+0  12915-3 0  9990
2 43910  50.0139 273.5356 0004714 232.3674 127.6823 14.27886293214782
YUNHAI 2-03             
1 43911U 18112C   23036.82585645  .00000248  00000+0  16416-3 0  9992
2 43911  50.0131 152.6059 0001271 140.7080 219.3936 14.27881343216473
YUNHAI 2-04             
1 43912U 18112D   23036.80386424  .00000192  00000+0  14140-3 0  9995
2 43912  50.0134  92.8910 0015281 357.8315   2.2537 14.27884353212135
